ATLAS CENTAUR R/B       
1 06155U 72065B   26069.23403056  .00001560  00000+0  21564-3 0  9995
2 06155  35.0017 302.5644 0033466  13.4168 346.7416 14.77688627841341
SL-8 R/B                
1 08459U 75112B   26069.26823630  .00000331  00000+0  11745-3 0  9992
2 08459  74.0630  17.8474 0014419 110.8997 249.3702 14.38204202631950
SL-3 R/B                
1 10114U 77057B   26069.49593997  .00015342  00000+0  32125-3 0  9991
2 10114  97.5778 241.4520 0006169 281.9852  78.0705 15.45519810668452
SEASAT 1                
1 10967U 78064A   26069.11866629  .00000314  00000+0  12632-3 0  9994
2 10967 108.0108 126.4000 0002328 285.7450  74.3439 14.46160702506576
SL-14 R/B               
1 11267U 79011B   26069.51946519  .00000701  00000+0  66594-4 0  9999
2 11267  82.5208  95.7834 0017370  58.0020 302.2885 14.91909243528907
SL-8 R/B                
1 11574U 79089B   26069.50846008  .00000343  00000+0  11157-3 0  9992
2 11574  74.0667  89.5278 0017162 262.1209  97.7999 14.42351404436223
SL-14 R/B               
1 11672U 80005B   26069.13034980  .00000659  00000+0  64127-4 0  9994
2 11672  82.5144 306.8184 0016218 156.8608 203.3345 14.90930937476557
SL-8 R/B                
1 12139U 81003B   26069.06698317  .00021828  00000+0  55974-3 0  9994
2 12139  82.9385 289.6746 0262078 177.3345 182.9362 15.10990524314735
SL-3 R/B                
1 12465U 81046B   26069.56315618  .00013914  00000+0  32319-3 0  9993
2 12465  81.2299 288.6952 0019488  19.3100 340.8876 15.42020799438566
SL-3 R/B                
1 12904U 81103B   26069.49576541  .00006656  00000+0  29518-3 0  9993
2 12904  81.1586 212.4864 0012365 283.9509  76.0347 15.21387780973353
SL-3 R/B                
1 13068U 82013B   26069.50349846  .00005370  00000+0  23228-3 0  9998
2 13068  81.1761 159.8170 0022684 174.8009 185.3463 15.22028422404473
SL-3 R/B                
1 13154U 82039B   26069.51821506  .00003317  00000+0  20030-3 0  9998
2 13154  81.1582 215.0065 0029702 321.7921  38.1198 15.10087488381762
