CCSDS_OMM_VERS = 2.0
CREATION_DATE  = 
ORIGINATOR     = 

OBJECT_NAME    = ATLAS CENTAUR R/B
OBJECT_ID      = 1972-065B
CENTER_NAME    = EARTH
REF_FRAME      = TEME
TIME_SYSTEM    = UTC
MEAN_ELEMENT_THEORY = SGP/SGP4

EPOCH          = 2026-03-10T05:37:00.240384
MEAN_MOTION    = 14.77688627
ECCENTRICITY   = .0033466
INCLINATION    = 35.0017
RA_OF_ASC_NODE = 302.5644
ARG_OF_PERICENTER = 13.4168
MEAN_ANOMALY   = 346.7416

EPHEMERIS_TYPE = 0
CLASSIFICATION_TYPE = U
NORAD_CAT_ID   = 6155
ELEMENT_SET_NO = 999
REV_AT_EPOCH   = 84134
BSTAR          = .21564E-3
MEAN_MOTION_DOT = .156E-4
MEAN_MOTION_DDOT = 0

CCSDS_OMM_VERS = 2.0
CREATION_DATE  = 
ORIGINATOR     = 

OBJECT_NAME    = SL-8 R/B
OBJECT_ID      = 1975-112B
CENTER_NAME    = EARTH
REF_FRAME      = TEME
TIME_SYSTEM    = UTC
MEAN_ELEMENT_THEORY = SGP/SGP4

EPOCH          = 2026-03-10T06:26:15.616320
MEAN_MOTION    = 14.38204202
ECCENTRICITY   = .0014419
INCLINATION    = 74.0630
RA_OF_ASC_NODE = 17.8474
ARG_OF_PERICENTER = 110.8997
MEAN_ANOMALY   = 249.3702

EPHEMERIS_TYPE = 0
CLASSIFICATION_TYPE = U
NORAD_CAT_ID   = 8459
ELEMENT_SET_NO = 999
REV_AT_EPOCH   = 63195
BSTAR          = .11745E-3
MEAN_MOTION_DOT = .331E-5
MEAN_MOTION_DDOT = 0

CCSDS_OMM_VERS = 2.0
CREATION_DATE  = 
ORIGINATOR     = 

OBJECT_NAME    = SL-3 R/B
OBJECT_ID      = 1977-057B
CENTER_NAME    = EARTH
REF_FRAME      = TEME
TIME_SYSTEM    = UTC
MEAN_ELEMENT_THEORY = SGP/SGP4

EPOCH          = 2026-03-10T11:54:09.213408
MEAN_MOTION    = 15.45519810
ECCENTRICITY   = .0006169
INCLINATION    = 97.5778
RA_OF_ASC_NODE = 241.4520
ARG_OF_PERICENTER = 281.9852
MEAN_ANOMALY   = 78.0705

EPHEMERIS_TYPE = 0
CLASSIFICATION_TYPE = U
NORAD_CAT_ID   = 10114
ELEMENT_SET_NO = 999
REV_AT_EPOCH   = 66845
BSTAR          = .32125E-3
MEAN_MOTION_DOT = .15342E-3
MEAN_MOTION_DDOT = 0

CCSDS_OMM_VERS = 2.0
CREATION_DATE  = 
ORIGINATOR     = 

OBJECT_NAME    = SEASAT 1
OBJECT_ID      = 1978-064A
CENTER_NAME    = EARTH
REF_FRAME      = TEME
TIME_SYSTEM    = UTC
MEAN_ELEMENT_THEORY = SGP/SGP4

EPOCH          = 2026-03-10T02:50:52.767456
MEAN_MOTION    = 14.46160702
ECCENTRICITY   = .00023284
INCLINATION    = 108.0108
RA_OF_ASC_NODE = 126.4000
ARG_OF_PERICENTER = 285.7450
MEAN_ANOMALY   = 74.3439

EPHEMERIS_TYPE = 0
CLASSIFICATION_TYPE = U
NORAD_CAT_ID   = 10967
ELEMENT_SET_NO = 999
REV_AT_EPOCH   = 50657
BSTAR          = .12631613E-3
MEAN_MOTION_DOT = .314E-5
MEAN_MOTION_DDOT = 0

CCSDS_OMM_VERS = 2.0
CREATION_DATE  = 
ORIGINATOR     = 

OBJECT_NAME    = SL-14 R/B
OBJECT_ID      = 1979-011B
CENTER_NAME    = EARTH
REF_FRAME      = TEME
TIME_SYSTEM    = UTC
MEAN_ELEMENT_THEORY = SGP/SGP4

EPOCH          = 2026-03-10T12:28:01.792416
MEAN_MOTION    = 14.91909243
ECCENTRICITY   = .001737
INCLINATION    = 82.5208
RA_OF_ASC_NODE = 95.7834
ARG_OF_PERICENTER = 58.0020
MEAN_ANOMALY   = 302.2885

EPHEMERIS_TYPE = 0
CLASSIFICATION_TYPE = U
NORAD_CAT_ID   = 11267
ELEMENT_SET_NO = 999
REV_AT_EPOCH   = 52890
BSTAR          = .66594E-4
MEAN_MOTION_DOT = .701E-5
MEAN_MOTION_DDOT = 0

CCSDS_OMM_VERS = 2.0
CREATION_DATE  = 
ORIGINATOR     = 

OBJECT_NAME    = SL-8 R/B
OBJECT_ID      = 1979-089B
CENTER_NAME    = EARTH
REF_FRAME      = TEME
TIME_SYSTEM    = UTC
MEAN_ELEMENT_THEORY = SGP/SGP4

EPOCH          = 2026-03-10T12:12:10.950912
MEAN_MOTION    = 14.42351404
ECCENTRICITY   = .0017162
INCLINATION    = 74.0667
RA_OF_ASC_NODE = 89.5278
ARG_OF_PERICENTER = 262.1209
MEAN_ANOMALY   = 97.7999

EPHEMERIS_TYPE = 0
CLASSIFICATION_TYPE = U
NORAD_CAT_ID   = 11574
ELEMENT_SET_NO = 999
REV_AT_EPOCH   = 43622
BSTAR          = .11157E-3
MEAN_MOTION_DOT = .343E-5
MEAN_MOTION_DDOT = 0

CCSDS_OMM_VERS = 2.0
CREATION_DATE  = 
ORIGINATOR     = 

OBJECT_NAME    = SL-14 R/B
OBJECT_ID      = 1980-005B
CENTER_NAME    = EARTH
REF_FRAME      = TEME
TIME_SYSTEM    = UTC
MEAN_ELEMENT_THEORY = SGP/SGP4

EPOCH          = 2026-03-10T03:07:42.222720
MEAN_MOTION    = 14.90930937
ECCENTRICITY   = .00162188
INCLINATION    = 82.5144
RA_OF_ASC_NODE = 306.8184
ARG_OF_PERICENTER = 156.8608
MEAN_ANOMALY   = 203.3345

EPHEMERIS_TYPE = 0
CLASSIFICATION_TYPE = U
NORAD_CAT_ID   = 11672
ELEMENT_SET_NO = 999
REV_AT_EPOCH   = 47655
BSTAR          = .64126665E-4
MEAN_MOTION_DOT = .659E-5
MEAN_MOTION_DDOT = 0

CCSDS_OMM_VERS = 2.0
CREATION_DATE  = 
ORIGINATOR     = 

OBJECT_NAME    = SL-8 R/B
OBJECT_ID      = 1981-003B
CENTER_NAME    = EARTH
REF_FRAME      = TEME
TIME_SYSTEM    = UTC
MEAN_ELEMENT_THEORY = SGP/SGP4

EPOCH          = 2026-03-10T01:36:27.345888
MEAN_MOTION    = 15.10990524
ECCENTRICITY   = .0262078
INCLINATION    = 82.9385
RA_OF_ASC_NODE = 289.6746
ARG_OF_PERICENTER = 177.3345
MEAN_ANOMALY   = 182.9362

EPHEMERIS_TYPE = 0
CLASSIFICATION_TYPE = U
NORAD_CAT_ID   = 12139
ELEMENT_SET_NO = 999
REV_AT_EPOCH   = 31473
BSTAR          = .55973642E-3
MEAN_MOTION_DOT = .21828E-3
MEAN_MOTION_DDOT = 0

CCSDS_OMM_VERS = 2.0
CREATION_DATE  = 
ORIGINATOR     = 

OBJECT_NAME    = SL-3 R/B
OBJECT_ID      = 1981-046B
CENTER_NAME    = EARTH
REF_FRAME      = TEME
TIME_SYSTEM    = UTC
MEAN_ELEMENT_THEORY = SGP/SGP4

EPOCH          = 2026-03-10T13:30:56.693952
MEAN_MOTION    = 15.42020799
ECCENTRICITY   = .0019488
INCLINATION    = 81.2299
RA_OF_ASC_NODE = 288.6952
ARG_OF_PERICENTER = 19.3100
MEAN_ANOMALY   = 340.8876

EPHEMERIS_TYPE = 0
CLASSIFICATION_TYPE = U
NORAD_CAT_ID   = 12465
ELEMENT_SET_NO = 999
REV_AT_EPOCH   = 43856
BSTAR          = .32319E-3
MEAN_MOTION_DOT = .13914E-3
MEAN_MOTION_DDOT = 0

CCSDS_OMM_VERS = 2.0
CREATION_DATE  = 
ORIGINATOR     = 

OBJECT_NAME    = SL-3 R/B
OBJECT_ID      = 1981-103B
CENTER_NAME    = EARTH
REF_FRAME      = TEME
TIME_SYSTEM    = UTC
MEAN_ELEMENT_THEORY = SGP/SGP4

EPOCH          = 2026-03-10T11:53:54.131424
MEAN_MOTION    = 15.21387780
ECCENTRICITY   = .0012365
INCLINATION    = 81.1586
RA_OF_ASC_NODE = 212.4864
ARG_OF_PERICENTER = 283.9509
MEAN_ANOMALY   = 76.0347

EPHEMERIS_TYPE = 0
CLASSIFICATION_TYPE = U
NORAD_CAT_ID   = 12904
ELEMENT_SET_NO = 999
REV_AT_EPOCH   = 97335
BSTAR          = .29518E-3
MEAN_MOTION_DOT = .6656E-4
MEAN_MOTION_DDOT = 0

CCSDS_OMM_VERS = 2.0
CREATION_DATE  = 
ORIGINATOR     = 

OBJECT_NAME    = SL-3 R/B
OBJECT_ID      = 1982-013B
CENTER_NAME    = EARTH
REF_FRAME      = TEME
TIME_SYSTEM    = UTC
MEAN_ELEMENT_THEORY = SGP/SGP4

EPOCH          = 2026-03-10T12:05:02.266944
MEAN_MOTION    = 15.22028422
ECCENTRICITY   = .0022684
INCLINATION    = 81.1761
RA_OF_ASC_NODE = 159.8170
ARG_OF_PERICENTER = 174.8009
MEAN_ANOMALY   = 185.3463

EPHEMERIS_TYPE = 0
CLASSIFICATION_TYPE = U
NORAD_CAT_ID   = 13068
ELEMENT_SET_NO = 999
REV_AT_EPOCH   = 40447
BSTAR          = .23228E-3
MEAN_MOTION_DOT = .537E-4
MEAN_MOTION_DDOT = 0

CCSDS_OMM_VERS = 2.0
CREATION_DATE  = 
ORIGINATOR     = 

OBJECT_NAME    = SL-3 R/B
OBJECT_ID      = 1982-039B
CENTER_NAME    = EARTH
REF_FRAME      = TEME
TIME_SYSTEM    = UTC
MEAN_ELEMENT_THEORY = SGP/SGP4

EPOCH          = 2026-03-10T12:26:13.781184
MEAN_MOTION    = 15.10087488
ECCENTRICITY   = .0029702
INCLINATION    = 81.1582
RA_OF_ASC_NODE = 215.0065
ARG_OF_PERICENTER = 321.7921
MEAN_ANOMALY   = 38.1198

EPHEMERIS_TYPE = 0
CLASSIFICATION_TYPE = U
NORAD_CAT_ID   = 13154
ELEMENT_SET_NO = 999
REV_AT_EPOCH   = 38176
BSTAR          = .2003E-3
MEAN_MOTION_DOT = .3317E-4
MEAN_MOTION_DDOT = 0

